NORAD_CAT_ID,OBJECT_NAME,OBJECT_TYPE,EPOCH,MEAN_MOTION,ECCENTRICITY,INCLINATION,RA_OF_ASC_NODE,ARG_OF_PERICENTER,MEAN_ANOMALY,BSTAR,MEAN_MOTION_DOT,MEAN_MOTION_DDOT,TLE_LINE0,TLE_LINE1,TLE_LINE2,SEMIMAJOR_AXIS,PERIOD,APOGEE,PERIGEE,DECAYED
44767,STARLINK-1062,PAYLOAD,2022-03-22 04:22:40,15.0639407,0.0001468,53.0534,249.2091,65.8057,294.3085,-1.0474000000000003e-05,-4.37e-06,0.0,0 STARLINK-1062,1 44767U 19074BG  22081.18240790 -.00000437  00000-0 -10474-4 0  9999,2 44767  53.0534 249.2091 0001468  65.8057 294.3085 15.06394070130041,6925.3669999999975,95.593,548.248,546.215,0.0
44767,STARLINK-1062,PAYLOAD,2022-03-22 12:20:21,15.06401434,0.0001543,53.0527,247.7187,66.1955,293.9196,0.00015696,2.057e-05,0.0,0 STARLINK-1062,1 44767U 19074BG  22081.51414067  .00002057  00000-0  15696-3 0  9994,2 44767  53.0527 247.7187 0001543  66.1955 293.9196 15.06401434129923,6925.344,95.592,548.278,546.141,0.0
44767,STARLINK-1062,PAYLOAD,2022-03-22 17:06:58,15.06403566,0.0001551,53.0526,246.825,66.6475,293.4677,0.00021916,2.985e-05,0.0,0 STARLINK-1062,1 44767U 19074BG  22081.71317997  .00002985  00000-0  21916-3 0  9992,2 44767  53.0526 246.8250 0001551  66.6475 293.4677 15.06403566130125,6925.3380000000025,95.592,548.2769999999998,546.129,0.0
44767,STARLINK-1062,PAYLOAD,2022-03-23 12:13:27,15.06399328,0.0001834,53.0532,243.2536,47.452,312.6624,0.00019595,2.638e-05,0.0,0 STARLINK-1062,1 44767U 19074BG  22082.50934310  .00002638  00000-0  19595-3 0  9999,2 44767  53.0532 243.2536 0001834  47.4520 312.6624 15.06399328130072,6925.351,95.592,548.486,545.946,0.0
44767,STARLINK-1062,PAYLOAD,2022-03-23 17:00:04,15.06396933,0.0001464,53.0525,242.3583,59.4732,300.6401,0.00012846,1.632e-05,0.0,0 STARLINK-1062,1 44767U 19074BG  22082.70838260  .00001632  00000-0  12846-3 0  9993,2 44767  53.0525 242.3583 0001464  59.4732 300.6401 15.06396933130274,6925.358,95.592,548.237,546.2090000000002,0.0
44767,STARLINK-1062,PAYLOAD,2022-03-24 13:42:04,15.06409686,0.000154,53.0525,238.4852,67.2466,292.8686,0.00048159,6.901e-05,0.0,0 STARLINK-1062,1 44767U 19074BG  22083.57088911  .00006901  00000-0  48159-3 0  9999,2 44767  53.0525 238.4852 0001540  67.2466 292.8686 15.06409686130238,6925.319,95.592,548.25,546.117,0.0
44767,STARLINK-1062,PAYLOAD,2022-03-24 16:53:09,15.06406127,0.0001535,53.0526,237.8896,66.3539,293.7611,0.00037274,5.276e-05,0.0,0 STARLINK-1062,1 44767U 19074BG  22083.70358341  .00005276  00000-0  37274-3 0  9991,2 44767  53.0526 237.8896 0001535  66.3539 293.7611 15.06406127130252,6925.33,95.592,548.258,546.132,0.0
44767,STARLINK-1062,PAYLOAD,2022-03-25 10:24:05,15.06402835,0.0001557,53.0525,234.6131,68.5095,291.606,0.00015365,2.008e-05,0.0,0 STARLINK-1062,1 44767U 19074BG  22084.43339946  .00002008  00000-0  15365-3 0  9999,2 44767  53.0525 234.6131 0001557  68.5095 291.6060 15.06402835130531,6925.34,95.592,548.283,546.127,0.0
44767,STARLINK-1062,PAYLOAD,2022-03-25 13:35:10,15.064043599999998,0.000156,53.0525,234.0174,68.6056,291.5099,0.00018925,2.539e-05,0.0,0 STARLINK-1062,1 44767U 19074BG  22084.56609226  .00002539  00000-0  18925-3 0  9998,2 44767  53.0525 234.0174 0001560  68.6056 291.5099 15.06404360130383,6925.335,95.592,548.281,546.12,0.0
44767,STARLINK-1062,PAYLOAD,2022-03-25 16:46:15,15.06403341,0.0001585,53.0525,233.4215,68.6563,291.4595,0.00017738,2.362e-05,0.0,0 STARLINK-1062,1 44767U 19074BG  22084.69878631  .00002362  00000-0  17738-3 0  9995,2 44767  53.0525 233.4215 0001585  68.6563 291.4595 15.06403341130403,6925.3380000000025,95.592,548.3009999999998,546.106,0.0
44767,STARLINK-1062,PAYLOAD,2022-03-26 02:19:29,15.0639397,0.0001584,53.0524,231.6345,65.5974,294.518,3.1492e-05,1.88e-06,0.0,0 STARLINK-1062,1 44767U 19074BG  22085.09687210  .00000188  00000-0  31492-4 0  9999,2 44767  53.0524 231.6345 0001584  65.5974 294.5180 15.06393970130632,6925.3669999999975,95.593,548.3290000000002,546.135,0.0
44767,STARLINK-1062,PAYLOAD,2022-03-26 13:28:16,15.06399192,0.0001633,53.0524,229.5499,67.0126,293.1035,0.0001383,1.779e-05,0.0,0 STARLINK-1062,1 44767U 19074BG  22085.56129918  .00001779  00000-0  13830-3 0  9999,2 44767  53.0524 229.5499 0001633  67.0126 293.1035 15.06399192130534,6925.351,95.592,548.347,546.085,0.0
44767,STARLINK-1062,PAYLOAD,2022-03-26 16:39:20,15.06404169,0.0001629999999999,53.0524,228.9541,66.7002,293.4159,0.00023929,3.285e-05,0.0,0 STARLINK-1062,1 44767U 19074BG  22085.69399099  .00003285  00000-0  23929-3 0  9996,2 44767  53.0524 228.9541 0001630  66.7002 293.4159 15.06404169130723,6925.3359999999975,95.592,548.33,546.072,0.0
44767,STARLINK-1062,PAYLOAD,2022-03-26 19:50:25,15.06403846,0.0001639,53.0523,228.3586,66.4932,293.6229,0.0002246,3.066e-05,0.0,0 STARLINK-1062,1 44767U 19074BG  22085.82668464  .00003066  00000-0  22460-3 0  9992,2 44767  53.0523 228.3586 0001639  66.4932 293.6229 15.06403846130577,6925.337,95.592,548.337,546.067,0.0
44767,STARLINK-1062,PAYLOAD,2022-03-27 11:45:49,15.06398034,0.0001683,53.0527,225.3803,66.5213,293.5952,9.2334e-05,1.094e-05,0.0,0 STARLINK-1062,1 44767U 19074BG  22086.49015637  .00001094  00000-0  92334-4 0  9991,2 44767  53.0527 225.3803 0001683  66.5213 293.5952 15.06398034130846,6925.355,95.592,548.385,546.054,0.0
44767,STARLINK-1062,PAYLOAD,2022-03-27 13:21:21,15.06400399,0.0001664,53.0527,225.0825,66.7837,293.3327,0.00013064,1.665e-05,0.0,0 STARLINK-1062,1 44767U 19074BG  22086.55650211  .00001665  00000-0  13064-3 0  9997,2 44767  53.0527 225.0825 0001664  66.7837 293.3327 15.06400399130684,6925.347,95.592,548.365,546.06,0.0
44767,STARLINK-1062,PAYLOAD,2022-03-27 19:43:31,15.06405471,0.0001675999999999,53.0523,223.891,66.363,293.7534,0.00024865,3.425e-05,0.0,0 STARLINK-1062,1 44767U 19074BG  22086.82188716  .00003425  00000-0  24865-3 0  9990,2 44767  53.0523 223.8910 0001676  66.3630 293.7534 15.06405471130726,6925.331999999999,95.592,548.357,546.036,0.0
44767,STARLINK-1062,PAYLOAD,2022-03-28 02:05:40,15.06409283,0.0001686,53.0525,222.6997,65.8577,294.2588,0.00034847,4.914e-05,0.0,0 STARLINK-1062,1 44767U 19074BG  22087.08727267  .00004914  00000-0  34847-3 0  9994,2 44767  53.0525 222.6997 0001686  65.8577 294.2588 15.06409283130938,6925.32,95.592,548.3530000000002,546.0169999999998,0.0
44767,STARLINK-1062,PAYLOAD,2022-03-28 11:38:54,15.06402807,0.0001462,53.0525,220.9115,74.3725,285.7425,0.0001289,1.639e-05,0.0,0 STARLINK-1062,1 44767U 19074BG  22087.48535355  .00001639  00000-0  12890-3 0  9998,2 44767  53.0525 220.9115 0001462  74.3725 285.7425 15.06402807130999,6925.34,95.592,548.217,546.192,0.0
44767,STARLINK-1062,PAYLOAD,2022-03-29 13:07:32,15.06392115,0.000153,53.0531,216.1469,65.0193,295.0955,1.9046e-05,2e-08,0.0,0 STARLINK-1062,1 44767U 19074BG  22088.54690939  .00000002  00000-0  19046-4 0  9990,2 44767  53.0531 216.1469 0001530  65.0193 295.0955 15.06392115131158,6925.373000000001,95.593,548.297,546.178,0.0
44767,STARLINK-1062,PAYLOAD,2022-03-29 14:43:05,15.06394205,0.0001462,53.0531,215.8488,67.1764,292.9379,5.018e-05,4.66e-06,0.0,0 STARLINK-1062,1 44767U 19074BG  22088.61325508  .00000466  00000-0  50180-4 0  9993,2 44767  53.0531 215.8488 0001462  67.1764 292.9379 15.06394205130995,6925.366,95.593,548.244,546.219,0.0
44767,STARLINK-1062,PAYLOAD,2022-03-30 13:00:39,15.06387252,0.0001501999999999,53.054,211.6798,61.4875,298.6265,-8.8738e-06,-4.14e-06,0.0,0 STARLINK-1062,1 44767U 19074BG  22089.54212191 -.00000414  00000-0 -88738-5 0  9995,2 44767  53.0540 211.6798 0001502  61.4875 298.6265 15.06387252131305,6925.388000000001,95.593,548.293,546.212,0.0
44767,STARLINK-1062,PAYLOAD,2022-03-30 14:36:11,15.06387506,0.0001406999999999,53.0539,211.3811,65.8434,294.2702,-3.5681e-05,-8.13e-06,0.0,0 STARLINK-1062,1 44767U 19074BG  22089.60846893 -.00000813  00000-0 -35681-4 0  9995,2 44767  53.0539 211.3811 0001407  65.8434 294.2702 15.06387506131141,6925.387,95.593,548.226,546.2769999999998,0.0
44767,STARLINK-1062,PAYLOAD,2022-03-31 03:20:30,15.06391898,0.0001414,53.0541,208.9986,61.6795,298.4336,0.00013704,1.76e-05,0.0,0 STARLINK-1062,1 44767U 19074BG  22090.13923889  .00001760  00000-0  13704-3 0  9997,2 44767  53.0541 208.9986 0001414  61.6795 298.4336 15.06391898131396,6925.373000000001,95.593,548.2180000000002,546.259,0.0
44767,STARLINK-1062,PAYLOAD,2022-03-31 12:53:44,15.06407923,0.0001439,53.0533,207.2113,71.5621,288.5525,0.00042369,6.036e-05,0.0,0 STARLINK-1062,1 44767U 19074BG  22090.53731657  .00006036  00000-0  42369-3 0  9991,2 44767  53.0533 207.2113 0001439  71.5621 288.5525 15.06407923131450,6925.324000000001,95.592,548.186,546.193,0.0
44767,STARLINK-1062,PAYLOAD,2022-03-31 14:29:16,15.06407736,0.0001503,53.0533,206.9139,62.6279,297.4862,0.00049843,7.152e-05,0.0,0 STARLINK-1062,1 44767U 19074BG  22090.60366601  .00007152  00000-0  49843-3 0  9996,2 44767  53.0533 206.9139 0001503  62.6279 297.4862 15.06407736131293,6925.325,95.592,548.231,546.149,0.0
44767,STARLINK-1062,PAYLOAD,2022-04-01 12:46:48,15.06421923,0.0001665,53.0533,202.7446,55.2198,304.8948,0.0005315,7.649e-05,0.0,0 STARLINK-1062,1 44767U 19074BG  22091.53251104  .00007649  00000-0  53150-3 0  9997,2 44767  53.0533 202.7446 0001665  55.2198 304.8948 15.06421923131433,6925.281,95.591,548.299,545.993,0.0
44767,STARLINK-1062,PAYLOAD,2022-04-02 03:06:39,15.06419222,0.000143,53.0536,200.0649,74.2195,285.8952,0.00012826,1.63e-05,0.0,0 STARLINK-1062,1 44767U 19074BG  22092.12962405  .00001630  00000-0  12826-3 0  9995,2 44767  53.0536 200.0649 0001430  74.2195 285.8952 15.06419222131690,6925.29,95.591,548.145,546.164,0.0
44767,STARLINK-1062,PAYLOAD,2022-04-02 12:39:54,15.06394699,0.0001246,53.0535,198.2763,64.2372,295.8746,-0.00039489,-6.157e-05,0.0,0 STARLINK-1062,1 44767U 19074BG  22092.52770985 -.00006157  00000-0 -39489-3 0  9994,2 44767  53.0535 198.2763 0001246  64.2372 295.8746 15.06394699131754,6925.365,95.592,548.0930000000002,546.367,0.0
